CCSDS_OMM_VERS = 2.0
CREATION_DATE  = 
ORIGINATOR     = 

OBJECT_NAME    = CENTISPACE-1 OBJECT E
OBJECT_ID      = 2026-060E
CENTER_NAME    = EARTH
REF_FRAME      = TEME
TIME_SYSTEM    = UTC
MEAN_ELEMENT_THEORY = SGP/SGP4

EPOCH          = 2026-03-27T22:07:44.994720
MEAN_MOTION    = 14.75185616
ECCENTRICITY   = .00131953
INCLINATION    = 54.9733
RA_OF_ASC_NODE = 7.2338
ARG_OF_PERICENTER = 312.6614
MEAN_ANOMALY   = 47.3272

EPHEMERIS_TYPE = 0
CLASSIFICATION_TYPE = U
NORAD_CAT_ID   = 68354
ELEMENT_SET_NO = 999
REV_AT_EPOCH   = 78
BSTAR          = .33541017E-4
MEAN_MOTION_DOT = .18E-6
MEAN_MOTION_DDOT = 0

CCSDS_OMM_VERS = 2.0
CREATION_DATE  = 
ORIGINATOR     = 

OBJECT_NAME    = CENTISPACE-1 OBJECT F
OBJECT_ID      = 2026-060F
CENTER_NAME    = EARTH
REF_FRAME      = TEME
TIME_SYSTEM    = UTC
MEAN_ELEMENT_THEORY = SGP/SGP4

EPOCH          = 2026-03-27T22:07:35.338656
MEAN_MOTION    = 14.75223562
ECCENTRICITY   = .00135215
INCLINATION    = 54.9760
RA_OF_ASC_NODE = 7.2326
ARG_OF_PERICENTER = 313.0383
MEAN_ANOMALY   = 46.9483

EPHEMERIS_TYPE = 0
CLASSIFICATION_TYPE = U
NORAD_CAT_ID   = 68355
ELEMENT_SET_NO = 999
REV_AT_EPOCH   = 78
BSTAR          = .33551696E-4
MEAN_MOTION_DOT = .19E-6
MEAN_MOTION_DDOT = 0

CCSDS_OMM_VERS = 2.0
CREATION_DATE  = 
ORIGINATOR     = 

OBJECT_NAME    = CENTISPACE-1 OBJECT G
OBJECT_ID      = 2026-060G
CENTER_NAME    = EARTH
REF_FRAME      = TEME
TIME_SYSTEM    = UTC
MEAN_ELEMENT_THEORY = SGP/SGP4

EPOCH          = 2026-03-27T22:07:09.504192
MEAN_MOTION    = 14.75314907
ECCENTRICITY   = .00137459
INCLINATION    = 54.9885
RA_OF_ASC_NODE = 7.2335
ARG_OF_PERICENTER = 312.6516
MEAN_ANOMALY   = 47.3324

EPHEMERIS_TYPE = 0
CLASSIFICATION_TYPE = U
NORAD_CAT_ID   = 68356
ELEMENT_SET_NO = 999
REV_AT_EPOCH   = 78
BSTAR          = .3351616E-4
MEAN_MOTION_DOT = .19E-6
MEAN_MOTION_DDOT = 0

CCSDS_OMM_VERS = 2.0
CREATION_DATE  = 
ORIGINATOR     = 

OBJECT_NAME    = CENTISPACE-1 OBJECT H
OBJECT_ID      = 2026-060H
CENTER_NAME    = EARTH
REF_FRAME      = TEME
TIME_SYSTEM    = UTC
MEAN_ELEMENT_THEORY = SGP/SGP4

EPOCH          = 2026-03-25T14:49:38.254368
MEAN_MOTION    = 14.75425125
ECCENTRICITY   = .00144709
INCLINATION    = 54.9848
RA_OF_ASC_NODE = 16.6351
ARG_OF_PERICENTER = 304.4277
MEAN_ANOMALY   = 55.5354

EPHEMERIS_TYPE = 0
CLASSIFICATION_TYPE = U
NORAD_CAT_ID   = 68357
ELEMENT_SET_NO = 999
REV_AT_EPOCH   = 44
BSTAR          = .33491501E-4
MEAN_MOTION_DOT = .19E-6
MEAN_MOTION_DDOT = 0

CCSDS_OMM_VERS = 2.0
CREATION_DATE  = 
ORIGINATOR     = 

OBJECT_NAME    = CENTISPACE-1 OBJECT J
OBJECT_ID      = 2026-060J
CENTER_NAME    = EARTH
REF_FRAME      = TEME
TIME_SYSTEM    = UTC
MEAN_ELEMENT_THEORY = SGP/SGP4

EPOCH          = 2026-03-25T14:49:37.060320
MEAN_MOTION    = 14.75435012
ECCENTRICITY   = .0013871
INCLINATION    = 54.9877
RA_OF_ASC_NODE = 16.6351
ARG_OF_PERICENTER = 306.1411
MEAN_ANOMALY   = 53.8304

EPHEMERIS_TYPE = 0
CLASSIFICATION_TYPE = U
NORAD_CAT_ID   = 68358
ELEMENT_SET_NO = 999
REV_AT_EPOCH   = 44
BSTAR          = .33263E-4
MEAN_MOTION_DOT = .17E-6
MEAN_MOTION_DDOT = 0

CCSDS_OMM_VERS = 2.0
CREATION_DATE  = 
ORIGINATOR     = 

OBJECT_NAME    = CENTISPACE-1 OBJECT K
OBJECT_ID      = 2026-060K
CENTER_NAME    = EARTH
REF_FRAME      = TEME
TIME_SYSTEM    = UTC
MEAN_ELEMENT_THEORY = SGP/SGP4

EPOCH          = 2026-03-27T22:06:12.482784
MEAN_MOTION    = 14.75498113
ECCENTRICITY   = .00145452
INCLINATION    = 54.9803
RA_OF_ASC_NODE = 7.2298
ARG_OF_PERICENTER = 312.1188
MEAN_ANOMALY   = 47.8574

EPHEMERIS_TYPE = 0
CLASSIFICATION_TYPE = U
NORAD_CAT_ID   = 68359
ELEMENT_SET_NO = 999
REV_AT_EPOCH   = 78
BSTAR          = .33483752E-4
MEAN_MOTION_DOT = .19E-6
MEAN_MOTION_DDOT = 0

CCSDS_OMM_VERS = 2.0
CREATION_DATE  = 
ORIGINATOR     = 

OBJECT_NAME    = SUPERVIEW NEO-2 OBJECT A
OBJECT_ID      = 2026-062A
CENTER_NAME    = EARTH
REF_FRAME      = TEME
TIME_SYSTEM    = UTC
MEAN_ELEMENT_THEORY = SGP/SGP4

EPOCH          = 2026-03-27T23:18:09.614304
MEAN_MOTION    = 15.20116434
ECCENTRICITY   = .00081554
INCLINATION    = 97.4378
RA_OF_ASC_NODE = 95.4247
ARG_OF_PERICENTER = 264.2057
MEAN_ANOMALY   = 95.8248

EPHEMERIS_TYPE = 0
CLASSIFICATION_TYPE = U
NORAD_CAT_ID   = 68377
ELEMENT_SET_NO = 999
REV_AT_EPOCH   = 31
BSTAR          = .72302188E-4
MEAN_MOTION_DOT = .1494E-4
MEAN_MOTION_DDOT = 0

CCSDS_OMM_VERS = 2.0
CREATION_DATE  = 
ORIGINATOR     = 

OBJECT_NAME    = SUPERVIEW NEO-2 OBJECT B
OBJECT_ID      = 2026-062B
CENTER_NAME    = EARTH
REF_FRAME      = TEME
TIME_SYSTEM    = UTC
MEAN_ELEMENT_THEORY = SGP/SGP4

EPOCH          = 2026-03-27T01:10:54.793056
MEAN_MOTION    = 15.20012563
ECCENTRICITY   = .00103961
INCLINATION    = 97.4356
RA_OF_ASC_NODE = 94.5245
ARG_OF_PERICENTER = 272.3840
MEAN_ANOMALY   = 87.6205

EPHEMERIS_TYPE = 0
CLASSIFICATION_TYPE = U
NORAD_CAT_ID   = 68378
ELEMENT_SET_NO = 999
REV_AT_EPOCH   = 17
BSTAR          = .14872926E-3
MEAN_MOTION_DOT = .3139E-4
MEAN_MOTION_DDOT = 0

CCSDS_OMM_VERS = 2.0
CREATION_DATE  = 
ORIGINATOR     = 

OBJECT_NAME    = CZ-2D R/B
OBJECT_ID      = 2026-062C
CENTER_NAME    = EARTH
REF_FRAME      = TEME
TIME_SYSTEM    = UTC
MEAN_ELEMENT_THEORY = SGP/SGP4

EPOCH          = 2026-03-27T22:57:32.291136
MEAN_MOTION    = 15.30996105
ECCENTRICITY   = .00537588
INCLINATION    = 97.4989
RA_OF_ASC_NODE = 95.2533
ARG_OF_PERICENTER = 54.6117
MEAN_ANOMALY   = 306.0128

EPHEMERIS_TYPE = 0
CLASSIFICATION_TYPE = U
NORAD_CAT_ID   = 68379
ELEMENT_SET_NO = 999
REV_AT_EPOCH   = 31
BSTAR          = .21533885E-3
MEAN_MOTION_DOT = .666E-4
MEAN_MOTION_DDOT = 0

CCSDS_OMM_VERS = 2.0
CREATION_DATE  = 
ORIGINATOR     = 

OBJECT_NAME    = 2026-064A
OBJECT_ID      = 2026-064A
CENTER_NAME    = EARTH
REF_FRAME      = TEME
TIME_SYSTEM    = UTC
MEAN_ELEMENT_THEORY = SGP/SGP4

EPOCH          = 2026-03-28T01:44:35.995776
MEAN_MOTION    = 15.23565806
ECCENTRICITY   = .0014868
INCLINATION    = 97.4664
RA_OF_ASC_NODE = 163.0178
ARG_OF_PERICENTER = 228.6682
MEAN_ANOMALY   = 131.3277

EPHEMERIS_TYPE = 0
CLASSIFICATION_TYPE = U
NORAD_CAT_ID   = 68405
ELEMENT_SET_NO = 999
REV_AT_EPOCH   = 14
BSTAR          = .28804E-3
MEAN_MOTION_DOT = .6836E-4
MEAN_MOTION_DDOT = 0

