CENTISPACE-1 OBJECT E   
1 68354U 26060E   26086.92204855  .00000018  00000+0  33541-4 0  9995
2 68354  54.9733   7.2338 0013195 312.6614  47.3272 14.75185616   788
CENTISPACE-1 OBJECT F   
1 68355U 26060F   26086.92193679  .00000019  00000+0  33552-4 0  9990
2 68355  54.9760   7.2326 0013521 313.0383  46.9483 14.75223562   789
CENTISPACE-1 OBJECT G   
1 68356U 26060G   26086.92163778  .00000019  00000+0  33516-4 0  9998
2 68356  54.9885   7.2335 0013745 312.6516  47.3324 14.75314907   782
CENTISPACE-1 OBJECT H   
1 68357U 26060H   26084.61780387  .00000019  00000+0  33492-4 0  9997
2 68357  54.9848  16.6351 0014470 304.4277  55.5354 14.75425125   445
CENTISPACE-1 OBJECT J   
1 68358U 26060J   26084.61779005  .00000017  00000+0  33263-4 0  9997
2 68358  54.9877  16.6351 0013871 306.1411  53.8304 14.75435012   443
CENTISPACE-1 OBJECT K   
1 68359U 26060K   26086.92097781  .00000019  00000+0  33484-4 0  9995
2 68359  54.9803   7.2298 0014545 312.1188  47.8574 14.75498113   786
SUPERVIEW NEO-2 OBJECT A
1 68377U 26062A   26086.97094461  .00001494  00000+0  72302-4 0  9994
2 68377  97.4378  95.4247 0008155 264.2057  95.8248 15.20116434   314
SUPERVIEW NEO-2 OBJECT B
1 68378U 26062B   26086.04924529  .00003139  00000+0  14873-3 0  9996
2 68378  97.4356  94.5245 0010396 272.3840  87.6205 15.20012563   173
CZ-2D R/B               
1 68379U 26062C   26086.95662374  .00006660  00000+0  21534-3 0  9998
2 68379  97.4989  95.2533 0053758  54.6117 306.0128 15.30996105   313
2026-064A               
1 68405U 26064A   26087.07263884  .00006836  00000+0  28804-3 0  9999
2 68405  97.4664 163.0178 0014868 228.6682 131.3277 15.23565806   148
